[{"OBJECT_NAME":"KANOPUS-V 5","OBJECT_ID":"2018-111A","EPOCH":"2026-03-09T21:37:32.042784","MEAN_MOTION":15.22750265,"ECCENTRICITY":0.0001351,"INCLINATION":97.3642,"RA_OF_ASC_NODE":336.4182,"ARG_OF_PERICENTER":73.1386,"MEAN_ANOMALY":286.9998,"EPHEMERIS_TYPE":0,"CLASSIFICATION_TYPE":"U","NORAD_CAT_ID":43876,"ELEMENT_SET_NO":999,"REV_AT_EPOCH":39967,"BSTAR":0.00010734798,"MEAN_MOTION_DOT":2.436e-5,"MEAN_MOTION_DDOT":0},{"OBJECT_NAME":"STARLINK-6126","OBJECT_ID":"2023-046AJ","EPOCH":"2026-03-09T22:00:01.999584","MEAN_MOTION":15.125351,"ECCENTRICITY":0.00023023,"INCLINATION":42.9998,"RA_OF_ASC_NODE":144.9048,"ARG_OF_PERICENTER":271.6853,"MEAN_ANOMALY":109.3366,"EPHEMERIS_TYPE":0,"CLASSIFICATION_TYPE":"U","NORAD_CAT_ID":56124,"ELEMENT_SET_NO":999,"REV_AT_EPOCH":577,"BSTAR":0.0675572,"MEAN_MOTION_DOT":0.01299298,"MEAN_MOTION_DDOT":0}]
